{
  "type": "FeatureCollection",
  "features": [
    {
      "type": "Feature",
      "properties": {
        "norad_id": 2807,
        "name": "OPS 7218 (TRANSIT 16)",
        "group": "nnss",
        "lat": -9.795868922133282,
        "lon": 173.74962177728128,
        "alt_km": 1077.0599511717073,
        "timestamp": "2025-12-22T11:33:20.707894+00:00",
        "meta_object_name": "OPS 7218 (TRANSIT 16)",
        "meta_object_id": "1967-048A",
        "meta_epoch": "2025-12-21T17:41:39.509376",
        "meta_mean_motion": 13.50724099,
        "meta_eccentricity": 0.0022162,
        "meta_inclination": 89.6731,
        "meta_ra_of_asc_node": 353.7177,
        "meta_arg_of_pericenter": 90.0973,
        "meta_mean_anomaly": 82.6056,
        "meta_ephemeris_type": 0,
        "meta_classification_type": "U",
        "meta_norad_cat_id": 2807,
        "meta_element_set_no": 999,
        "meta_rev_at_epoch": 88397,
        "meta_bstar": 0.0001479,
        "meta_mean_motion_dot": 1.06e-06,
        "meta_mean_motion_ddot": 0,
        "tle_line1": "1 02807U 67048A   25355.73726284  .00000106  00000+0  14790-3 0  9991",
        "tle_line2": "2 02807  89.6731 353.7177 0022162  90.0973  82.6056 13.50724099883979"
      },
      "geometry": {
        "type": "Point",
        "coordinates": [
          173.74962177728128,
          -9.795868922133282
        ]
      }
    },
    {
      "type": "Feature",
      "properties": {
        "norad_id": 2965,
        "name": "OPS 4947 (TRANSIT 17)",
        "group": "nnss",
        "lat": -10.199906196416233,
        "lon": 23.557188686651376,
        "alt_km": 1092.0352833297584,
        "timestamp": "2025-12-22T11:33:20.707915+00:00",
        "meta_object_name": "OPS 4947 (TRANSIT 17)",
        "meta_object_id": "1967-092A",
        "meta_epoch": "2025-12-22T03:02:10.192704",
        "meta_mean_motion": 13.53456022,
        "meta_eccentricity": 0.0046861,
        "meta_inclination": 89.2487,
        "meta_ra_of_asc_node": 23.7195,
        "meta_arg_of_pericenter": 206.5849,
        "meta_mean_anomaly": 214.414,
        "meta_ephemeris_type": 0,
        "meta_classification_type": "U",
        "meta_norad_cat_id": 2965,
        "meta_element_set_no": 999,
        "meta_rev_at_epoch": 87224,
        "meta_bstar": 0.00020254,
        "meta_mean_motion_dot": 1.48e-06,
        "meta_mean_motion_ddot": 0,
        "tle_line1": "1 02965U 67092A   25356.12650686  .00000148  00000+0  20254-3 0  9999",
        "tle_line2": "2 02965  89.2487  23.7195 0046861 206.5849 214.4140 13.53456022872248"
      },
      "geometry": {
        "type": "Point",
        "coordinates": [
          23.557188686651376,
          -10.199906196416233
        ]
      }
    },
    {
      "type": "Feature",
      "properties": {
        "norad_id": 3133,
        "name": "OPS 7034 (TRANSIT 18)",
        "group": "nnss",
        "lat": 71.81065176571221,
        "lon": -86.42016601083354,
        "alt_km": 1039.5970860662082,
        "timestamp": "2025-12-22T11:33:20.707929+00:00",
        "meta_object_name": "OPS 7034 (TRANSIT 18)",
        "meta_object_id": "1968-012A",
        "meta_epoch": "2025-12-22T04:41:47.227200",
        "meta_mean_motion": 13.51567879,
        "meta_eccentricity": 0.0074747,
        "meta_inclination": 90.0285,
        "meta_ra_of_asc_node": 273.6658,
        "meta_arg_of_pericenter": 141.9219,
        "meta_mean_anomaly": 340.9277,
        "meta_ephemeris_type": 0,
        "meta_classification_type": "U",
        "meta_norad_cat_id": 3133,
        "meta_element_set_no": 999,
        "meta_rev_at_epoch": 57046,
        "meta_bstar": 0.00020491,
        "meta_mean_motion_dot": 1.46e-06,
        "meta_mean_motion_ddot": 0,
        "tle_line1": "1 03133U 68012A   25356.19568550  .00000146  00000+0  20491-3 0  9996",
        "tle_line2": "2 03133  90.0285 273.6658 0074747 141.9219 340.9277 13.51567879570465"
      },
      "geometry": {
        "type": "Point",
        "coordinates": [
          -86.42016601083354,
          71.81065176571221
        ]
      }
    },
    {
      "type": "Feature",
      "properties": {
        "norad_id": 4507,
        "name": "NNSS 19 (TRANSIT 19)",
        "group": "nnss",
        "lat": 36.69133949826742,
        "lon": -125.46323694579976,
        "alt_km": 1148.2954709745009,
        "timestamp": "2025-12-22T11:33:20.707941+00:00",
        "meta_object_name": "NNSS 19 (TRANSIT 19)",
        "meta_object_id": "1970-067A",
        "meta_epoch": "2025-12-22T02:29:12.723072",
        "meta_mean_motion": 13.51317001,
        "meta_eccentricity": 0.0170222,
        "meta_inclination": 90.005,
        "meta_ra_of_asc_node": 234.5403,
        "meta_arg_of_pericenter": 265.9727,
        "meta_mean_anomaly": 92.1953,
        "meta_ephemeris_type": 0,
        "meta_classification_type": "U",
        "meta_norad_cat_id": 4507,
        "meta_element_set_no": 999,
        "meta_rev_at_epoch": 72348,
        "meta_bstar": 0.00016324,
        "meta_mean_motion_dot": 1.24e-06,
        "meta_mean_motion_ddot": 0,
        "tle_line1": "1 04507U 70067A   25356.10361948  .00000124  00000+0  16324-3 0  9994",
        "tle_line2": "2 04507  90.0050 234.5403 0170222 265.9727  92.1953 13.51317001723480"
      },
      "geometry": {
        "type": "Point",
        "coordinates": [
          -125.46323694579976,
          36.69133949826742
        ]
      }
    },
    {
      "type": "Feature",
      "properties": {
        "norad_id": 6909,
        "name": "NNSS 20 (TRANSIT 20)",
        "group": "nnss",
        "lat": 86.12520215196469,
        "lon": 72.78335426853575,
        "alt_km": 903.754818423703,
        "timestamp": "2025-12-22T11:33:20.707951+00:00",
        "meta_object_name": "NNSS 20 (TRANSIT 20)",
        "meta_object_id": "1973-081A",
        "meta_epoch": "2025-12-22T02:21:26.012736",
        "meta_mean_motion": 13.71439096,
        "meta_eccentricity": 0.0156327,
        "meta_inclination": 89.8562,
        "meta_ra_of_asc_node": 254.914,
        "meta_arg_of_pericenter": 50.5929,
        "meta_mean_anomaly": 310.8956,
        "meta_ephemeris_type": 0,
        "meta_classification_type": "U",
        "meta_norad_cat_id": 6909,
        "meta_element_set_no": 999,
        "meta_rev_at_epoch": 80489,
        "meta_bstar": 0.00027895,
        "meta_mean_motion_dot": 2.85e-06,
        "meta_mean_motion_ddot": 0,
        "tle_line1": "1 06909U 73081A   25356.09821774  .00000285  00000+0  27895-3 0  9990",
        "tle_line2": "2 06909  89.8562 254.9140 0156327  50.5929 310.8956 13.71439096804897"
      },
      "geometry": {
        "type": "Point",
        "coordinates": [
          72.78335426853575,
          86.12520215196469
        ]
      }
    },
    {
      "type": "Feature",
      "properties": {
        "norad_id": 10457,
        "name": "TRANSAT",
        "group": "nnss",
        "lat": -42.705615065098755,
        "lon": 77.92705780666863,
        "alt_km": 1100.6029897979188,
        "timestamp": "2025-12-22T11:33:20.707962+00:00",
        "meta_object_name": "TRANSAT",
        "meta_object_id": "1977-106A",
        "meta_epoch": "2025-12-22T04:43:59.923776",
        "meta_mean_motion": 13.48945163,
        "meta_eccentricity": 0.0026228,
        "meta_inclination": 89.6479,
        "meta_ra_of_asc_node": 78.2623,
        "meta_arg_of_pericenter": 162.6687,
        "meta_mean_anomaly": 214.9455,
        "meta_ephemeris_type": 0,
        "meta_classification_type": "U",
        "meta_norad_cat_id": 10457,
        "meta_element_set_no": 999,
        "meta_rev_at_epoch": 36871,
        "meta_bstar": 0.00016513,
        "meta_mean_motion_dot": 1.14e-06,
        "meta_mean_motion_ddot": 0,
        "tle_line1": "1 10457U 77106A   25356.19722134  .00000114  00000+0  16513-3 0  9992",
        "tle_line2": "2 10457  89.6479  78.2623 0026228 162.6687 214.9455 13.48945163368715"
      },
      "geometry": {
        "type": "Point",
        "coordinates": [
          77.92705780666863,
          -42.705615065098755
        ]
      }
    },
    {
      "type": "Feature",
      "properties": {
        "norad_id": 12458,
        "name": "NOVA 1",
        "group": "nnss",
        "lat": 39.726527347850386,
        "lon": 91.36998380522552,
        "alt_km": 1160.0023127532622,
        "timestamp": "2025-12-22T11:33:20.707973+00:00",
        "meta_object_name": "NOVA 1",
        "meta_object_id": "1981-044A",
        "meta_epoch": "2025-12-21T17:47:03.721056",
        "meta_mean_motion": 13.23279405,
        "meta_eccentricity": 0.0015829,
        "meta_inclination": 89.8527,
        "meta_ra_of_asc_node": 91.258,
        "meta_arg_of_pericenter": 81.8787,
        "meta_mean_anomaly": 32.6129,
        "meta_ephemeris_type": 0,
        "meta_classification_type": "U",
        "meta_norad_cat_id": 12458,
        "meta_element_set_no": 999,
        "meta_rev_at_epoch": 15305,
        "meta_bstar": 0.00011924,
        "meta_mean_motion_dot": 6e-07,
        "meta_mean_motion_ddot": 0,
        "tle_line1": "1 12458U 81044A   25355.74101529  .00000060  00000+0  11924-3 0  9991",
        "tle_line2": "2 12458  89.8527  91.2580 0015829  81.8787  32.6129 13.23279405153053"
      },
      "geometry": {
        "type": "Point",
        "coordinates": [
          91.36998380522552,
          39.726527347850386
        ]
      }
    }
  ]
}